STARLINK-36878          
1 67899U 26035W   26063.05757073 -.00314008  38718-4 -56438-3 0  9994
2 67899  97.2752 354.9769 0000893  43.9241 316.2109 16.01594199  2941
STARLINK-36361          
1 67900U 26035X   26063.11939519 -.00223885  21088-4 -40103-3 0  9997
2 67900  97.2749 355.0458 0001406 179.9431 180.1849 16.01631653  2956
STARLINK-36336          
1 67901U 26035Y   26063.00001156 -.01024078  34982-3 -18244-2 0  9993
2 67901  97.2748 354.9209 0000914 125.1232 278.6701 16.01848044  2890
STARLINK-36876          
1 67902U 26035Z   26063.00001156 -.01093955  39445-3 -19706-2 0  9997
2 67902  97.2750 354.9178 0001092 118.7727 276.8029 16.01665708  2846
STARLINK-36257          
1 67903U 26035AA  26063.00001156 -.01072704  38077-3 -19223-2 0  9991
2 67903  97.2745 354.9184 0000839 104.2000 294.8694 16.01753494  2893
STARLINK-36301          
1 67932U 26037A   26062.58336806 -.01357719  55759-3 -29675-2 0  9990
2 67932  43.0002 236.3782 0001381 264.0887 318.0085 15.97346447  2127
STARLINK-36852          
1 67933U 26037B   26062.58336806 -.01355793  55680-3 -29446-2 0  9990
2 67933  43.0004 236.3747 0001249 264.2220 319.2231 15.97460287  2212
STARLINK-36861          
1 67934U 26037C   26062.58336806 -.01356323  55799-3 -29234-2 0  9997
2 67934  43.0003 236.3701 0001361 268.5302 316.8494 15.97597259  2219
STARLINK-36860          
1 67935U 26037D   26062.58336806 -.01365707  56593-3 -29201-2 0  9991
2 67935  43.0003 236.3654 0001512 272.0924 315.3019 15.97742292  2211
STARLINK-36848          
1 67936U 26037E   26062.58336806 -.01359471  56277-3 -28636-2 0  9993
2 67936  43.0003 236.3553 0001546 270.1059 321.0753 15.98009049  2211
STARLINK-36370          
1 67937U 26037F   26062.58336806 -.01357617  56061-3 -28804-2 0  9992
2 67937  43.0005 236.3601 0001662 269.9900 319.4677 15.97879454  2218
STARLINK-36371          
1 67938U 26037G   26062.58336806 -.01353827  55918-3 -28331-2 0  9997
2 67938  43.0003 236.3511 0001542 270.2563 322.4725 15.98125376  2210
STARLINK-36246          
1 67939U 26037H   26062.58336806 -.01345738  55373-3 -27979-2 0  9992
2 67939  43.0004 236.3476 0001674 270.5425 323.7249 15.98239336  2125
STARLINK-36907          
1 67940U 26037J   26062.58336806 -.01338137  55021-3 -27232-2 0  9991
2 67940  43.0003 236.3336 0001614 266.6299 332.8743 15.98618727  2215
STARLINK-36927          
1 67941U 26037K   26062.58336806 -.01335065  54930-3 -26799-2 0  9994
2 67941  43.0003 236.3254 0001606 268.0662 334.7143 15.98861766  2214
STARLINK-36914          
1 67942U 26037L   26062.58336806 -.01352377  55964-3 -27881-2 0  9991
2 67942  43.0003 236.3419 0001583 269.3870 327.0234 15.98390757  2210
